[{"OBJECT_NAME":"STARLINK-5817","OBJECT_ID":"2023-028AQ","EPOCH":"2026-03-09T16:57:33.682176","MEAN_MOTION":14.9832852,"ECCENTRICITY":0.00032219,"INCLINATION":70.0001,"RA_OF_ASC_NODE":204.2112,"ARG_OF_PERICENTER":266.7202,"MEAN_ANOMALY":93.3589,"EPHEMERIS_TYPE":0,"CLASSIFICATION_TYPE":"U","NORAD_CAT_ID":55779,"ELEMENT_SET_NO":999,"REV_AT_EPOCH":16703,"BSTAR":0.00010024754,"MEAN_MOTION_DOT":1.103e-5,"MEAN_MOTION_DDOT":0},{"OBJECT_NAME":"FENGYUN 1C DEB","OBJECT_ID":"1999-025CKD","EPOCH":"2026-02-28T13:50:26.166336","MEAN_MOTION":14.88090782,"ECCENTRICITY":0.00820173,"INCLINATION":99.4445,"RA_OF_ASC_NODE":2.7077,"ARG_OF_PERICENTER":355.7359,"MEAN_ANOMALY":4.3144,"EPHEMERIS_TYPE":0,"CLASSIFICATION_TYPE":"U","NORAD_CAT_ID":31878,"ELEMENT_SET_NO":999,"REV_AT_EPOCH":99250,"BSTAR":0.001844343,"MEAN_MOTION_DOT":0.00018017,"MEAN_MOTION_DDOT":0}]
